{"type": "FeatureCollection", "features": [ {"type": "Feature", "properties": {"norad_id": 33825, "name": "COSMOS 2251 DEB", "group": "cosmos-2251-debris", "lat": -73.92133065262809, "lon": -83.0859901607063, "alt_km": 633.4549534796988, "timestamp": "2025-12-25T22:42:17.405842+00:00", "meta": {"OBJECT_NAME": "COSMOS 2251 DEB", "OBJECT_ID": "1993-036BS", "EPOCH": "2025-12-25T10:21:21.180960", "MEAN_MOTION": 14.69888847, "ECCENTRICITY": 0.0085127, "INCLINATION": 73.9851, "RA_OF_ASC_NODE": 3.1078, "ARG_OF_PERICENTER": 327.2381, "MEAN_ANOMALY": 103.2695, "EPHEMERIS_TYPE": 0, "CLASSIFICATION_TYPE": "U", "NORAD_CAT_ID": 33825, "ELEMENT_SET_NO": 999, "REV_AT_EPOCH": 89066, "BSTAR": 0.001092, "MEAN_MOTION_DOT": 6.88e-05, "MEAN_MOTION_DDOT": 0}, "tle": {"line1": "1 33825U 93036BS  25359.43149515  .00006880  00000+0  10920-2 0  9993", "line2": "2 33825  73.9851   3.1078 0085127 327.2381 103.2695 14.69888847890662"}}, "geometry": {"type": "Point", "coordinates": [-83.0859901607063, -73.92133065262809]}}, {"type": "Feature", "properties": {"norad_id": 33826, "name": "COSMOS 2251 DEB", "group": "cosmos-2251-debris", "lat": 21.79138023646587, "lon": 31.60644575851778, "alt_km": 675.6291214282974, "timestamp": "2025-12-25T22:42:17.405853+00:00", "meta": {"OBJECT_NAME": "COSMOS 2251 DEB", "OBJECT_ID": "1993-036BT", "EPOCH": "2025-12-25T13:15:18.325152", "MEAN_MOTION": 14.51775833, "ECCENTRICITY": 0.0082507, "INCLINATION": 74.0639, "RA_OF_ASC_NODE": 25.7871, "ARG_OF_PERICENTER": 65.796, "MEAN_ANOMALY": 60.6536, "EPHEMERIS_TYPE": 0, "CLASSIFICATION_TYPE": "U", "NORAD_CAT_ID": 33826, "ELEMENT_SET_NO": 999, "REV_AT_EPOCH": 87955, "BSTAR": 0.00048037, "MEAN_MOTION_DOT": 1.99e-05, "MEAN_MOTION_DDOT": 0}, "tle": {"line1": "1 33826U 93036BT  25359.55229543  .00001990  00000+0  48037-3 0  9995", "line2": "2 33826  74.0639  25.7871 0082507  65.7960  60.6536 14.51775833879552"}}, "geometry": {"type": "Point", "coordinates": [31.60644575851778, 21.79138023646587]}}, {"type": "Feature", "properties": {"norad_id": 33828, "name": "COSMOS 2251 DEB", "group": "cosmos-2251-debris", "lat": -65.65479709403981, "lon": 174.31416579108537, "alt_km": 730.0086366689775, "timestamp": "2025-12-25T22:42:17.405863+00:00", "meta": {"OBJECT_NAME": "COSMOS 2251 DEB", "OBJECT_ID": "1993-036BV", "EPOCH": "2025-12-25T16:39:34.624800", "MEAN_MOTION": 14.44368685, "ECCENTRICITY": 0.0029516, "INCLINATION": 74.0449, "RA_OF_ASC_NODE": 214.0006, "ARG_OF_PERICENTER": 284.9434, "MEAN_ANOMALY": 134.4998, "EPHEMERIS_TYPE": 0, "CLASSIFICATION_TYPE": "U", "NORAD_CAT_ID": 33828, "ELEMENT_SET_NO": 999, "REV_AT_EPOCH": 88500, "BSTAR": 0.00038885, "MEAN_MOTION_DOT": 1.319e-05, "MEAN_MOTION_DDOT": 0}, "tle": {"line1": "1 33828U 93036BV  25359.69415075  .00001319  00000+0  38885-3 0  9994", "line2": "2 33828  74.0449 214.0006 0029516 284.9434 134.4998 14.44368685885002"}}, "geometry": {"type": "Point", "coordinates": [174.31416579108537, -65.65479709403981]}}, {"type": "Feature", "properties": {"norad_id": 33830, "name": "COSMOS 2251 DEB", "group": "cosmos-2251-debris", "lat": -73.84255418788618, "lon": 123.21344948204352, "alt_km": 626.0583343811559, "timestamp": "2025-12-25T22:42:17.405873+00:00", "meta": {"OBJECT_NAME": "COSMOS 2251 DEB", "OBJECT_ID": "1993-036BX", "EPOCH": "2025-12-25T16:54:46.963008", "MEAN_MOTION": 14.77031127, "ECCENTRICITY": 0.0042803, "INCLINATION": 74.0308, "RA_OF_ASC_NODE": 204.9445, "ARG_OF_PERICENTER": 322.4145, "MEAN_ANOMALY": 107.7233, "EPHEMERIS_TYPE": 0, "CLASSIFICATION_TYPE": "U", "NORAD_CAT_ID": 33830, "ELEMENT_SET_NO": 999, "REV_AT_EPOCH": 89663, "BSTAR": 0.00075823, "MEAN_MOTION_DOT": 5.399e-05, "MEAN_MOTION_DDOT": 0}, "tle": {"line1": "1 33830U 93036BX  25359.70471022  .00005399  00000+0  75823-3 0  9998", "line2": "2 33830  74.0308 204.9445 0042803 322.4145 107.7233 14.77031127896635"}}, "geometry": {"type": "Point", "coordinates": [123.21344948204352, -73.84255418788618]}}, {"type": "Feature", "properties": {"norad_id": 33832, "name": "COSMOS 2251 DEB", "group": "cosmos-2251-debris", "lat": -73.97097112250871, "lon": 100.35140036329182, "alt_km": 688.5989821512712, "timestamp": "2025-12-25T22:42:17.405883+00:00", "meta": {"OBJECT_NAME": "COSMOS 2251 DEB", "OBJECT_ID": "1993-036BZ", "EPOCH": "2025-12-25T15:12:01.755360", "MEAN_MOTION": 14.60797662, "ECCENTRICITY": 0.0023979, "INCLINATION": 74.053, "RA_OF_ASC_NODE": 185.3704, "ARG_OF_PERICENTER": 213.96, "MEAN_ANOMALY": 213.6728, "EPHEMERIS_TYPE": 0, "CLASSIFICATION_TYPE": "U", "NORAD_CAT_ID": 33832, "ELEMENT_SET_NO": 999, "REV_AT_EPOCH": 88613, "BSTAR": 0.0014751, "MEAN_MOTION_DOT": 7.21e-05, "MEAN_MOTION_DDOT": 0}, "tle": {"line1": "1 33832U 93036BZ  25359.63335365  .00007210  00000+0  14751-2 0  9997", "line2": "2 33832  74.0530 185.3704 0023979 213.9600 213.6728 14.60797662886132"}}, "geometry": {"type": "Point", "coordinates": [100.35140036329182, -73.97097112250871]}}, {"type": "Feature", "properties": {"norad_id": 33835, "name": "COSMOS 2251 DEB", "group": "cosmos-2251-debris", "lat": -2.6723187526925836, "lon": -103.38730615589718, "alt_km": 667.8029175161391, "timestamp": "2025-12-25T22:42:17.405893+00:00", "meta": {"OBJECT_NAME": "COSMOS 2251 DEB", "OBJECT_ID": "1993-036CC", "EPOCH": "2025-12-25T15:59:34.374912", "MEAN_MOTION": 14.62370337, "ECCENTRICITY": 0.0053708, "INCLINATION": 74.0572, "RA_OF_ASC_NODE": 76.383, "ARG_OF_PERICENTER": 126.0837, "MEAN_ANOMALY": 24.3645, "EPHEMERIS_TYPE": 0, "CLASSIFICATION_TYPE": "U", "NORAD_CAT_ID": 33835, "ELEMENT_SET_NO": 999, "REV_AT_EPOCH": 88978, "BSTAR": 0.00092914, "MEAN_MOTION_DOT": 4.768e-05, "MEAN_MOTION_DDOT": 0}, "tle": {"line1": "1 33835U 93036CC  25359.66637008  .00004768  00000+0  92914-3 0  9995", "line2": "2 33835  74.0572  76.3830 0053708 126.0837  24.3645 14.62370337889786"}}, "geometry": {"type": "Point", "coordinates": [-103.38730615589718, -2.6723187526925836]}}, {"type": "Feature", "properties": {"norad_id": 33836, "name": "COSMOS 2251 DEB", "group": "cosmos-2251-debris", "lat": -44.69247660408267, "lon": -143.6083400890017, "alt_km": 646.0848567074836, "timestamp": "2025-12-25T22:42:17.405903+00:00", "meta": {"OBJECT_NAME": "COSMOS 2251 DEB", "OBJECT_ID": "1993-036CD", "EPOCH": "2025-12-25T16:41:26.318400", "MEAN_MOTION": 14.79832586, "ECCENTRICITY": 0.002293, "INCLINATION": 73.9958, "RA_OF_ASC_NODE": 233.3824, "ARG_OF_PERICENTER": 81.6202, "MEAN_ANOMALY": 337.2002, "EPHEMERIS_TYPE": 0, "CLASSIFICATION_TYPE": "U", "NORAD_CAT_ID": 33836, "ELEMENT_SET_NO": 999, "REV_AT_EPOCH": 64280, "BSTAR": 0.0011289, "MEAN_MOTION_DOT": 8.521e-05, "MEAN_MOTION_DDOT": 0}, "tle": {"line1": "1 33836U 93036CD  25359.69544350  .00008521  00000+0  11289-2 0  9992", "line2": "2 33836  73.9958 233.3824 0022930  81.6202 337.2002 14.79832586642806"}}, "geometry": {"type": "Point", "coordinates": [-143.6083400890017, -44.69247660408267]}}, {"type": "Feature", "properties": {"norad_id": 33837, "name": "COSMOS 2251 DEB", "group": "cosmos-2251-debris", "lat": -5.448761820806691, "lon": 29.167080174227902, "alt_km": 732.70859290315, "timestamp": "2025-12-25T22:42:17.405913+00:00", "meta": {"OBJECT_NAME": "COSMOS 2251 DEB", "OBJECT_ID": "1993-036CE", "EPOCH": "2025-12-25T12:48:03.042720", "MEAN_MOTION": 14.50727377, "ECCENTRICITY": 0.0035872, "INCLINATION": 74.0123, "RA_OF_ASC_NODE": 31.5108, "ARG_OF_PERICENTER": 251.2088, "MEAN_ANOMALY": 108.518, "EPHEMERIS_TYPE": 0, "CLASSIFICATION_TYPE": "U", "NORAD_CAT_ID": 33837, "ELEMENT_SET_NO": 999, "REV_AT_EPOCH": 88981, "BSTAR": 0.00025624, "MEAN_MOTION_DOT": 9.87e-06, "MEAN_MOTION_DDOT": 0}, "tle": {"line1": "1 33837U 93036CE  25359.53336855  .00000987  00000+0  25624-3 0  9992", "line2": "2 33837  74.0123  31.5108 0035872 251.2088 108.5180 14.50727377889812"}}, "geometry": {"type": "Point", "coordinates": [29.167080174227902, -5.448761820806691]}}, {"type": "Feature", "properties": {"norad_id": 33838, "name": "COSMOS 2251 DEB", "group": "cosmos-2251-debris", "lat": 60.175330603505444, "lon": -84.87262750582964, "alt_km": 737.1135511303883, "timestamp": "2025-12-25T22:42:17.405923+00:00", "meta": {"OBJECT_NAME": "COSMOS 2251 DEB", "OBJECT_ID": "1993-036CF", "EPOCH": "2025-12-25T15:35:30.013152", "MEAN_MOTION": 14.48402588, "ECCENTRICITY": 0.0027472, "INCLINATION": 74.0366, "RA_OF_ASC_NODE": 125.6364, "ARG_OF_PERICENTER": 245.78, "MEAN_ANOMALY": 125.1621, "EPHEMERIS_TYPE": 0, "CLASSIFICATION_TYPE": "U", "NORAD_CAT_ID": 33838, "ELEMENT_SET_NO": 999, "REV_AT_EPOCH": 88756, "BSTAR": 0.00045614, "MEAN_MOTION_DOT": 1.689e-05, "MEAN_MOTION_DDOT": 0}, "tle": {"line1": "1 33838U 93036CF  25359.64965293  .00001689  00000+0  45614-3 0  9990", "line2": "2 33838  74.0366 125.6364 0027472 245.7800 125.1621 14.48402588887564"}}, "geometry": {"type": "Point", "coordinates": [-84.87262750582964, 60.175330603505444]}}, {"type": "Feature", "properties": {"norad_id": 33839, "name": "COSMOS 2251 DEB", "group": "cosmos-2251-debris", "lat": 73.3104470877424, "lon": -106.21032179287997, "alt_km": 725.9483597526769, "timestamp": "2025-12-25T22:42:17.405933+00:00", "meta": {"OBJECT_NAME": "COSMOS 2251 DEB", "OBJECT_ID": "1993-036CG", "EPOCH": "2025-12-25T12:37:08.860800", "MEAN_MOTION": 14.64450648, "ECCENTRICITY": 0.0085374, "INCLINATION": 74.0373, "RA_OF_ASC_NODE": 181.9107, "ARG_OF_PERICENTER": 291.0826, "MEAN_ANOMALY": 99.0176, "EPHEMERIS_TYPE": 0, "CLASSIFICATION_TYPE": "U", "NORAD_CAT_ID": 33839, "ELEMENT_SET_NO": 999, "REV_AT_EPOCH": 89767, "BSTAR": 0.00022045, "MEAN_MOTION_DOT": 1.196e-05, "MEAN_MOTION_DDOT": 0}, "tle": {"line1": "1 33839U 93036CG  25359.52579700  .00001196  00000+0  22045-3 0  9998", "line2": "2 33839  74.0373 181.9107 0085374 291.0826  99.0176 14.64450648897675"}}, "geometry": {"type": "Point", "coordinates": [-106.21032179287997, 73.3104470877424]}}]}